NORAD_CAT_ID,OBJECT_NAME,OBJECT_TYPE,EPOCH,MEAN_MOTION,ECCENTRICITY,INCLINATION,RA_OF_ASC_NODE,ARG_OF_PERICENTER,MEAN_ANOMALY,BSTAR,MEAN_MOTION_DOT,MEAN_MOTION_DDOT,TLE_LINE0,TLE_LINE1,TLE_LINE2,SEMIMAJOR_AXIS,PERIOD,APOGEE,PERIGEE,DECAYED
55648.0,STARLINK-5501,PAYLOAD,2023-11-09 14:06:21,14.98323705,0.0002682,70.0003,170.4251,264.4058,95.6795,0.00047336,5.559e-05,0.0,0 STARLINK-5501,1 55648U 23021W   23313.58774515  .00005559  00000-0  47336-3 0  9990,2 55648  70.0003 170.4251 0002682 264.4058  95.6795 14.98323705 41308,6950.212,96.107,573.941,570.213,0.0
55648.0,STARLINK-5501,PAYLOAD,2023-11-09 17:18:37,14.98323261,0.000287,69.9997,170.0889,253.7524,106.332,0.00048415,5.687e-05,0.0,0 STARLINK-5501,1 55648U 23021W   23313.72126482  .00005687  00000-0  48415-3 0  9991,2 55648  69.9997 170.0889 0002870 253.7524 106.3320 14.98323261 41028,6950.214,96.107,574.073,570.084,0.0
55648.0,STARLINK-5501,PAYLOAD,2023-11-09 22:07:01,14.98327788,0.0002848,69.9997,169.583,259.687,100.3968,0.00046034,5.404e-05,0.0,0 STARLINK-5501,1 55648U 23021W   23313.92154315  .00005404  00000-0  46034-3 0  9991,2 55648  69.9997 169.5830 0002848 259.6870 100.3968 14.98327788 41357,6950.2,96.107,574.044,570.085,0.0
55648.0,STARLINK-5501,PAYLOAD,2023-11-10 07:43:50,14.98328752,0.000249,70.0008,168.5723,278.9513,81.1364,0.00024585,2.842e-05,0.0,0 STARLINK-5501,1 55648U 23021W   23314.32211110  .00002842  00000-0  24585-3 0  9993,2 55648  70.0008 168.5723 0002490 278.9513  81.1364 14.98328752 41419,6950.197,96.107,573.792,570.331,0.0
55648.0,STARLINK-5501,PAYLOAD,2023-11-10 20:32:54,14.98337648,0.0002693,70.0002,167.2277,263.0539,97.0314,-4.6125e-05,-6.43e-06,0.0,0 STARLINK-5501,1 55648U 23021W   23314.85618839 -.00000643  00000-0 -46125-4 0  9994,2 55648  70.0002 167.2277 0002693 263.0539  97.0314 14.98337648 41191,6950.169,96.107,573.906,570.163,0.0
55648.0,STARLINK-5501,PAYLOAD,2023-11-10 22:09:02,14.98335896,0.0002633,70.0005,167.0592,257.3416,102.7449,-6.2406e-05,-8.38e-06,0.0,0 STARLINK-5501,1 55648U 23021W   23314.92294919 -.00000838  00000-0 -62406-4 0  9997,2 55648  70.0005 167.0592 0002633 257.3416 102.7449 14.98335896 41507,6950.175,96.107,573.87,570.21,0.0
55648.0,STARLINK-5501,PAYLOAD,2023-11-10 23:45:10,14.98334973,0.0002866,70.0,166.8906,265.5154,94.5678,-7.6257e-05,-1.003e-05,0.0,0 STARLINK-5501,1 55648U 23021W   23314.98970968 -.00001003  00000-0 -76257-4 0  9992,2 55648  70.0000 166.8906 0002866 265.5154  94.5678 14.98334973 41514,6950.178,96.107,574.034,570.051,0.0
55648.0,STARLINK-5501,PAYLOAD,2023-11-11 22:11:03,14.98338378,0.0002972,69.9996,164.5344,267.1166,92.9653,-0.00012383,-1.571e-05,0.0,0 STARLINK-5501,1 55648U 23021W   23315.92434344 -.00001571  00000-0 -12383-3 0  9999,2 55648  69.9996 164.5344 0002972 267.1166  92.9653 14.98338378 41658,6950.167,96.106,574.098,569.966,0.0
55648.0,STARLINK-5501,PAYLOAD,2023-11-11 23:47:11,14.98338156,0.0002925,69.9996,164.3659,266.5499,93.5326,-0.00011868,-1.509e-05,0.0,0 STARLINK-5501,1 55648U 23021W   23315.99110312 -.00001509  00000-0 -11868-3 0  9990,2 55648  69.9996 164.3659 0002925 266.5499  93.5326 14.98338156 41361,6950.168,96.106,574.066,570.0,0.0
55648.0,STARLINK-5501,PAYLOAD,2023-11-12 14:12:23,14.98330289,0.0003012,69.9993,162.8507,268.1749,91.9065,3.6622e-05,3.44e-06,0.0,0 STARLINK-5501,1 55648U 23021W   23316.59194166  .00000344  00000-0  36622-4 0  9996,2 55648  69.9993 162.8507 0003012 268.1749  91.9065 14.98330289 41751,6950.192,96.107,574.15,569.964,0.0
55648.0,STARLINK-5501,PAYLOAD,2023-11-12 22:13:03,14.9833365,0.000302,69.9993,162.0096,269.4099,90.6714,3.5962e-05,3.36e-06,0.0,0 STARLINK-5501,1 55648U 23021W   23316.92573925  .00000336  00000-0  35962-4 0  9994,2 55648  69.9993 162.0096 0003020 269.4099  90.6714 14.98333650 41805,6950.182,96.107,574.146,569.948,0.0
55648.0,STARLINK-5501,PAYLOAD,2023-11-12 23:49:11,14.98334151,0.0003018,69.9993,161.8412,269.4301,90.6513,4.0866e-05,3.95e-06,0.0,0 STARLINK-5501,1 55648U 23021W   23316.99249865  .00000395  00000-0  40866-4 0  9998,2 55648  69.9993 161.8412 0003018 269.4301  90.6513 14.98334151 41519,6950.18,96.107,574.143,569.947,0.0
55648.0,STARLINK-5501,PAYLOAD,2023-11-13 20:38:56,14.98333623,0.0002967,69.9994,159.6531,269.9906,90.0914,4.8931e-05,4.91e-06,0.0,0 STARLINK-5501,1 55648U 23021W   23317.86037683  .00000491  00000-0  48931-4 0  9996,2 55648  69.9994 159.6531 0002967 269.9906  90.0914 14.98333623 41944,6950.182,96.107,574.109,569.985,0.0
55648.0,STARLINK-5501,PAYLOAD,2023-11-13 23:51:12,14.98334586,0.0002945,69.9995,159.3164,270.1109,89.9712,5.9119e-05,6.13e-06,0.0,0 STARLINK-5501,1 55648U 23021W   23317.99389559  .00000613  00000-0  59119-4 0  9998,2 55648  69.9995 159.3164 0002945 270.1109  89.9712 14.98334586 41660,6950.179,96.107,574.091,569.997,0.0
55648.0,STARLINK-5501,PAYLOAD,2023-11-14 06:15:45,14.98331224,0.0002898,69.9995,158.643,270.5359,89.5468,8.6331e-06,1e-07,0.0,0 STARLINK-5501,1 55648U 23021W   23318.26093848  .00000010  00000-0  86331-5 0  9990,2 55648  69.9995 158.6430 0002898 270.5359  89.5468 14.98331224 42005,6950.189,96.107,574.068,570.04,0.0
55648.0,STARLINK-5501,PAYLOAD,2023-11-14 23:53:13,14.98329847,0.0002897,69.9995,156.7914,271.2602,88.8225,-2.9843e-05,-4.49e-06,0.0,0 STARLINK-5501,1 55648U 23021W   23318.99529962 -.00000449  00000-0 -29843-4 0  9993,2 55648  69.9995 156.7914 0002897 271.2602  88.8225 14.98329847 41818,6950.193,96.107,574.072,570.045,0.0
55648.0,STARLINK-5501,PAYLOAD,2023-11-15 19:06:50,14.98351766,0.0001925,70.0033,154.77,266.8978,93.1961,-0.00028991,-3.552e-05,0.0,0 STARLINK-5501,1 55648U 23021W   23319.79641510 -.00003552  00000-0 -28991-3 0  9996,2 55648  70.0033 154.7700 0001925 266.8978  93.1961 14.98351766 41936,6950.126,96.106,573.328,570.653,0.0
55648.0,STARLINK-5501,PAYLOAD,2023-11-15 22:16:54,14.99978255,0.0008174,70.0038,154.4287,242.62,117.4128,0.016779,0.00215482,0.0,0 STARLINK-5501,1 55648U 23021W   23319.92840558  .00215482  00000-0  16779-1 0  9998,2 55648  70.0038 154.4287 0008174 242.6200 117.4128 14.99978255 42251,6945.1,96.001,572.642,561.289,0.0
55648.0,STARLINK-5501,PAYLOAD,2023-11-16 01:30:54,14.98557618,0.0006365,70.0029,154.096,234.1395,125.9174,0.0013147,0.00015726,0.0,0 STARLINK-5501,1 55648U 23021W   23320.06313446  .00015726  00000-0  13147-2 0  9992,2 55648  70.0029 154.0960 0006365 234.1395 125.9174 14.98557618 41974,6949.489,96.092,575.777,566.931,0.0
55648.0,STARLINK-5501,PAYLOAD,2023-11-16 14:00:01,14.98339493,0.000299,70.0004,152.7875,267.7829,15.7557,-0.00077889,-9.376e-05,0.0,0 STARLINK-5501,1 55648U 23021W   23320.58334491 -.00009376  00000-0 -77889-3 0  9992,2 55648  70.0004 152.7875 0002990 267.7829  15.7557 14.98339493 42051,6950.164,96.106,574.107,569.95,0.0
55648.0,STARLINK-5501,PAYLOAD,2023-11-16 19:08:51,14.98327926,0.0002875,69.9983,152.2465,269.5227,90.5603,-2.1496e-05,-3.49e-06,0.0,0 STARLINK-5501,1 55648U 23021W   23320.79781943 -.00000349  00000-0 -21496-4 0  9998,2 55648  69.9983 152.2465 0002875 269.5227  90.5603 14.98327926 42385,6950.199,96.107,574.062,570.066,0.0
55648.0,STARLINK-5501,PAYLOAD,2023-11-17 12:46:20,14.98328041,0.0002858,69.9982,150.3948,269.7279,90.3552,3.5767e-06,-5e-07,0.0,0 STARLINK-5501,1 55648U 23021W   23321.53217891 -.00000050  00000-0  35767-5 0  9992,2 55648  69.9982 150.3948 0002858 269.7279  90.3552 14.98328041 42491,6950.199,96.107,574.05,570.078,0.0
55648.0,STARLINK-5501,PAYLOAD,2023-11-17 19:10:52,14.98329613,0.0002873,69.9982,149.7217,270.5268,89.5562,1.8851e-05,1.32e-06,0.0,0 STARLINK-5501,1 55648U 23021W   23321.79921772  .00000132  00000-0  18851-4 0  9994,2 55648  69.9982 149.7217 0002873 270.5268  89.5562 14.98329613 42236,6950.194,96.107,574.056,570.062,0.0
55648.0,STARLINK-5501,PAYLOAD,2023-11-17 22:23:08,14.98329123,0.0002902,69.9982,149.385,270.5761,89.5065,8.6701e-06,1e-07,0.0,0 STARLINK-5501,1 55648U 23021W   23321.93273833  .00000010  00000-0  86701-5 0  9993,2 55648  69.9982 149.3850 0002902 270.5761  89.5065 14.98329123 42555,6950.196,96.107,574.078,570.044,0.0
55648.0,STARLINK-5501,PAYLOAD,2023-11-18 12:48:21,14.98329231,0.0003015,69.9986,147.8706,271.4134,88.668,4.3741e-05,4.29e-06,0.0,0 STARLINK-5501,1 55648U 23021W   23322.53357730  .00000429  00000-0  43741-4 0  9999,2 55648  69.9986 147.8706 0003015 271.4134  88.6680 14.98329231 42645,6950.195,96.107,574.156,569.965,0.0
55648.0,STARLINK-5501,PAYLOAD,2023-11-18 19:12:53,14.98330397,0.0003017,69.9986,147.1974,271.4265,88.6548,5.3029e-05,5.4e-06,0.0,0 STARLINK-5501,1 55648U 23021W   23322.80061630  .00000540  00000-0  53029-4 0  9994,2 55648  69.9986 147.1974 0003017 271.4265  88.6548 14.98330397 42381,6950.192,96.107,574.154,569.96,0.0
55648.0,STARLINK-5501,PAYLOAD,2023-11-19 14:00:01,14.98355756,0.0003119,70.0013,145.2238,268.399,352.5612,-0.0025468,-0.0003037,0.0,0 STARLINK-5501,1 55648U 23021W   23323.58335648 -.00030370  00000-0 -25468-2 0  9993,2 55648  70.0013 145.2238 0003119 268.3990 352.5612 14.98355756  5784,6950.113,96.105,574.146,569.811,0.0
55648.0,STARLINK-5501,PAYLOAD,2023-11-19 22:00:00,14.98315275,0.0003072,70.0011,144.3834,275.1335,343.2699,0.0027484,0.00032842,0.0,0 STARLINK-5501,1 55648U 23021W   23323.91667824  .00032842  00000-0  27484-2 0  9998,2 55648  70.0011 144.3834 0003072 275.1335 343.2699 14.98315275 42551,6950.238,96.108,574.239,569.968,0.0
55648.0,STARLINK-5501,PAYLOAD,2023-11-20 04:51:42,14.98331227,0.0002991,69.9989,143.6625,271.9266,88.155,1.3038e-05,6.3e-07,0.0,0 STARLINK-5501,1 55648U 23021W   23324.20257546  .00000063  00000-0  13038-4 0  9999,2 55648  69.9989 143.6625 0002991 271.9266  88.1550 14.98331227 42598,6950.189,96.107,574.133,569.975,0.0
55648.0,STARLINK-5501,PAYLOAD,2023-11-20 14:28:30,14.98333316,0.0002939,69.999,142.6525,272.0064,88.0758,9.7865e-06,2.4e-07,0.0,0 STARLINK-5501,1 55648U 23021W   23324.60313372  .00000024  00000-0  97865-5 0  9991,2 55648  69.9990 142.6525 0002939 272.0064  88.0758 14.98333316 42958,6950.183,96.107,574.09,570.005,0.0
